CCSDS_OMM_VERS = 2.0
CREATION_DATE  = 
ORIGINATOR     = 

OBJECT_NAME    = TWILIGHT B
OBJECT_ID      = 2026-004B
CENTER_NAME    = EARTH
REF_FRAME      = TEME
TIME_SYSTEM    = UTC
MEAN_ELEMENT_THEORY = SGP/SGP4

EPOCH          = 2026-02-01T01:40:44.491296
MEAN_MOTION    = 14.87110986
ECCENTRICITY   = .00076761
INCLINATION    = 97.7989
RA_OF_ASC_NODE = 32.8698
ARG_OF_PERICENTER = 215.1081
MEAN_ANOMALY   = 144.9630

EPHEMERIS_TYPE = 0
CLASSIFICATION_TYPE = U
NORAD_CAT_ID   = 67364
ELEMENT_SET_NO = 999
REV_AT_EPOCH   = 305
BSTAR          = .52772472E-3
MEAN_MOTION_DOT = .4688E-4
MEAN_MOTION_DDOT = 0

CCSDS_OMM_VERS = 2.0
CREATION_DATE  = 
ORIGINATOR     = 

OBJECT_NAME    = TWILIGHT C
OBJECT_ID      = 2026-004C
CENTER_NAME    = EARTH
REF_FRAME      = TEME
TIME_SYSTEM    = UTC
MEAN_ELEMENT_THEORY = SGP/SGP4

EPOCH          = 2026-02-01T01:40:19.442208
MEAN_MOTION    = 14.87128910
ECCENTRICITY   = .00072805
INCLINATION    = 97.7965
RA_OF_ASC_NODE = 32.8675
ARG_OF_PERICENTER = 220.8045
MEAN_ANOMALY   = 139.2627

EPHEMERIS_TYPE = 0
CLASSIFICATION_TYPE = U
NORAD_CAT_ID   = 67365
ELEMENT_SET_NO = 999
REV_AT_EPOCH   = 305
BSTAR          = .55979237E-3
MEAN_MOTION_DOT = .4979E-4
MEAN_MOTION_DDOT = 0

CCSDS_OMM_VERS = 2.0
CREATION_DATE  = 
ORIGINATOR     = 

OBJECT_NAME    = TWILIGHT D
OBJECT_ID      = 2026-004D
CENTER_NAME    = EARTH
REF_FRAME      = TEME
TIME_SYSTEM    = UTC
MEAN_ELEMENT_THEORY = SGP/SGP4

EPOCH          = 2026-02-01T01:39:50.683104
MEAN_MOTION    = 14.87113205
ECCENTRICITY   = .00078777
INCLINATION    = 97.8023
RA_OF_ASC_NODE = 32.8742
ARG_OF_PERICENTER = 208.5719
MEAN_ANOMALY   = 151.5067

EPHEMERIS_TYPE = 0
CLASSIFICATION_TYPE = U
NORAD_CAT_ID   = 67366
ELEMENT_SET_NO = 999
REV_AT_EPOCH   = 305
BSTAR          = .39866799E-3
MEAN_MOTION_DOT = .3528E-4
MEAN_MOTION_DDOT = 0

CCSDS_OMM_VERS = 2.0
CREATION_DATE  = 
ORIGINATOR     = 

OBJECT_NAME    = TWILIGHT E
OBJECT_ID      = 2026-004E
CENTER_NAME    = EARTH
REF_FRAME      = TEME
TIME_SYSTEM    = UTC
MEAN_ELEMENT_THEORY = SGP/SGP4

EPOCH          = 2026-02-01T06:28:43.988448
MEAN_MOTION    = 14.87254480
ECCENTRICITY   = .00067555
INCLINATION    = 97.7954
RA_OF_ASC_NODE = 33.0663
ARG_OF_PERICENTER = 221.8516
MEAN_ANOMALY   = 138.2184

EPHEMERIS_TYPE = 0
CLASSIFICATION_TYPE = U
NORAD_CAT_ID   = 67367
ELEMENT_SET_NO = 999
REV_AT_EPOCH   = 308
BSTAR          = .53581394E-3
MEAN_MOTION_DOT = .4777E-4
MEAN_MOTION_DDOT = 0

CCSDS_OMM_VERS = 2.0
CREATION_DATE  = 
ORIGINATOR     = 

OBJECT_NAME    = TWILIGHT F
OBJECT_ID      = 2026-004F
CENTER_NAME    = EARTH
REF_FRAME      = TEME
TIME_SYSTEM    = UTC
MEAN_ELEMENT_THEORY = SGP/SGP4

EPOCH          = 2026-02-01T01:37:19.319808
MEAN_MOTION    = 14.87281196
ECCENTRICITY   = .0007215
INCLINATION    = 97.8013
RA_OF_ASC_NODE = 32.8761
ARG_OF_PERICENTER = 210.1595
MEAN_ANOMALY   = 149.9207

EPHEMERIS_TYPE = 0
CLASSIFICATION_TYPE = U
NORAD_CAT_ID   = 67368
ELEMENT_SET_NO = 999
REV_AT_EPOCH   = 305
BSTAR          = .5065728E-3
MEAN_MOTION_DOT = .4517E-4
MEAN_MOTION_DDOT = 0

CCSDS_OMM_VERS = 2.0
CREATION_DATE  = 
ORIGINATOR     = 

OBJECT_NAME    = TWILIGHT G
OBJECT_ID      = 2026-004G
CENTER_NAME    = EARTH
REF_FRAME      = TEME
TIME_SYSTEM    = UTC
MEAN_ELEMENT_THEORY = SGP/SGP4

EPOCH          = 2026-02-01T01:36:21.063744
MEAN_MOTION    = 14.87262890
ECCENTRICITY   = .00061748
INCLINATION    = 97.7945
RA_OF_ASC_NODE = 32.8690
ARG_OF_PERICENTER = 224.5168
MEAN_ANOMALY   = 135.5553

EPHEMERIS_TYPE = 0
CLASSIFICATION_TYPE = U
NORAD_CAT_ID   = 67369
ELEMENT_SET_NO = 999
REV_AT_EPOCH   = 305
BSTAR          = .30271651E-3
MEAN_MOTION_DOT = .2675E-4
MEAN_MOTION_DDOT = 0

CCSDS_OMM_VERS = 2.0
CREATION_DATE  = 
ORIGINATOR     = 

OBJECT_NAME    = TWILIGHT H
OBJECT_ID      = 2026-004H
CENTER_NAME    = EARTH
REF_FRAME      = TEME
TIME_SYSTEM    = UTC
MEAN_ELEMENT_THEORY = SGP/SGP4

EPOCH          = 2026-02-01T06:25:43.687200
MEAN_MOTION    = 14.87389616
ECCENTRICITY   = .00058548
INCLINATION    = 97.7942
RA_OF_ASC_NODE = 33.0676
ARG_OF_PERICENTER = 223.2945
MEAN_ANOMALY   = 136.7812

EPHEMERIS_TYPE = 0
CLASSIFICATION_TYPE = U
NORAD_CAT_ID   = 67370
ELEMENT_SET_NO = 999
REV_AT_EPOCH   = 308
BSTAR          = .52010885E-3
MEAN_MOTION_DOT = .4651E-4
MEAN_MOTION_DDOT = 0

CCSDS_OMM_VERS = 2.0
CREATION_DATE  = 
ORIGINATOR     = 

OBJECT_NAME    = TWILIGHT J
OBJECT_ID      = 2026-004J
CENTER_NAME    = EARTH
REF_FRAME      = TEME
TIME_SYSTEM    = UTC
MEAN_ELEMENT_THEORY = SGP/SGP4

EPOCH          = 2026-02-01T06:18:47.144160
MEAN_MOTION    = 14.87791460
ECCENTRICITY   = .00051505
INCLINATION    = 97.7983
RA_OF_ASC_NODE = 33.0787
ARG_OF_PERICENTER = 205.7977
MEAN_ANOMALY   = 154.2984

EPHEMERIS_TYPE = 0
CLASSIFICATION_TYPE = U
NORAD_CAT_ID   = 67371
ELEMENT_SET_NO = 999
REV_AT_EPOCH   = 308
BSTAR          = .58611976E-3
MEAN_MOTION_DOT = .5301E-4
MEAN_MOTION_DDOT = 0

CCSDS_OMM_VERS = 2.0
CREATION_DATE  = 
ORIGINATOR     = 

OBJECT_NAME    = TWILIGHT K
OBJECT_ID      = 2026-004K
CENTER_NAME    = EARTH
REF_FRAME      = TEME
TIME_SYSTEM    = UTC
MEAN_ELEMENT_THEORY = SGP/SGP4

EPOCH          = 2026-02-01T06:13:01.895808
MEAN_MOTION    = 14.87959004
ECCENTRICITY   = .00034921
INCLINATION    = 97.7964
RA_OF_ASC_NODE = 33.0804
ARG_OF_PERICENTER = 199.1540
MEAN_ANOMALY   = 160.9546

EPHEMERIS_TYPE = 0
CLASSIFICATION_TYPE = U
NORAD_CAT_ID   = 67372
ELEMENT_SET_NO = 999
REV_AT_EPOCH   = 308
BSTAR          = .23016072E-3
MEAN_MOTION_DOT = .2056E-4
MEAN_MOTION_DDOT = 0

CCSDS_OMM_VERS = 2.0
CREATION_DATE  = 
ORIGINATOR     = 

OBJECT_NAME    = TWILIGHT L
OBJECT_ID      = 2026-004L
CENTER_NAME    = EARTH
REF_FRAME      = TEME
TIME_SYSTEM    = UTC
MEAN_ELEMENT_THEORY = SGP/SGP4

EPOCH          = 2026-02-01T01:30:17.816544
MEAN_MOTION    = 14.87563341
ECCENTRICITY   = .00050365
INCLINATION    = 97.7977
RA_OF_ASC_NODE = 32.8776
ARG_OF_PERICENTER = 212.7590
MEAN_ANOMALY   = 147.3315

EPHEMERIS_TYPE = 0
CLASSIFICATION_TYPE = U
NORAD_CAT_ID   = 67373
ELEMENT_SET_NO = 999
REV_AT_EPOCH   = 305
BSTAR          = .24858359E-3
MEAN_MOTION_DOT = .2203E-4
MEAN_MOTION_DDOT = 0

CCSDS_OMM_VERS = 2.0
CREATION_DATE  = 
ORIGINATOR     = 

OBJECT_NAME    = TWILIGHT M
OBJECT_ID      = 2026-004M
CENTER_NAME    = EARTH
REF_FRAME      = TEME
TIME_SYSTEM    = UTC
MEAN_ELEMENT_THEORY = SGP/SGP4

EPOCH          = 2026-02-01T01:23:48.194880
MEAN_MOTION    = 14.87917758
ECCENTRICITY   = .00037725
INCLINATION    = 97.7961
RA_OF_ASC_NODE = 32.8797
ARG_OF_PERICENTER = 200.9297
MEAN_ANOMALY   = 159.1765

EPHEMERIS_TYPE = 0
CLASSIFICATION_TYPE = U
NORAD_CAT_ID   = 67374
ELEMENT_SET_NO = 999
REV_AT_EPOCH   = 305
BSTAR          = .27143566E-3
MEAN_MOTION_DOT = .2432E-4
MEAN_MOTION_DDOT = 0

CCSDS_OMM_VERS = 2.0
CREATION_DATE  = 
ORIGINATOR     = 

OBJECT_NAME    = TWILIGHT N
OBJECT_ID      = 2026-004N
CENTER_NAME    = EARTH
REF_FRAME      = TEME
TIME_SYSTEM    = UTC
MEAN_ELEMENT_THEORY = SGP/SGP4

EPOCH          = 2026-02-01T06:13:47.174592
MEAN_MOTION    = 14.87943772
ECCENTRICITY   = .00043629
INCLINATION    = 97.7999
RA_OF_ASC_NODE = 33.0863
ARG_OF_PERICENTER = 195.2558
MEAN_ANOMALY   = 164.8527

EPHEMERIS_TYPE = 0
CLASSIFICATION_TYPE = U
NORAD_CAT_ID   = 67375
ELEMENT_SET_NO = 999
REV_AT_EPOCH   = 308
BSTAR          = .24327442E-3
MEAN_MOTION_DOT = .2176E-4
MEAN_MOTION_DDOT = 0

