TWILIGHT B              
1 67364U 26004B   26032.06995939  .00004688  00000+0  52772-3 0  9992
2 67364  97.7989  32.8698 0007676 215.1081 144.9630 14.87110986  3057
TWILIGHT C              
1 67365U 26004C   26032.06966947  .00004979  00000+0  55979-3 0  9995
2 67365  97.7965  32.8675 0007280 220.8045 139.2627 14.87128910  3050
TWILIGHT D              
1 67366U 26004D   26032.06933661  .00003528  00000+0  39867-3 0  9990
2 67366  97.8023  32.8742 0007877 208.5719 151.5067 14.87113205  3051
TWILIGHT E              
1 67367U 26004E   26032.26995357  .00004777  00000+0  53581-3 0  9999
2 67367  97.7954  33.0663 0006755 221.8516 138.2184 14.87254480  3082
TWILIGHT F              
1 67368U 26004F   26032.06758472  .00004517  00000+0  50657-3 0  9996
2 67368  97.8013  32.8761 0007215 210.1595 149.9207 14.87281196  3052
TWILIGHT G              
1 67369U 26004G   26032.06691046  .00002675  00000+0  30272-3 0  9994
2 67369  97.7945  32.8690 0006174 224.5168 135.5553 14.87262890  3050
TWILIGHT H              
1 67370U 26004H   26032.26786675  .00004651  00000+0  52011-3 0  9992
2 67370  97.7942  33.0676 0005854 223.2945 136.7812 14.87389616  3089
TWILIGHT J              
1 67371U 26004J   26032.26304565  .00005301  00000+0  58612-3 0  9993
2 67371  97.7983  33.0787 0005150 205.7977 154.2984 14.87791460  3086
TWILIGHT K              
1 67372U 26004K   26032.25904972  .00002056  00000+0  23016-3 0  9995
2 67372  97.7964  33.0804 0003492 199.1540 160.9546 14.87959004  3083
TWILIGHT L              
1 67373U 26004L   26032.06270621  .00002203  00000+0  24858-3 0  9991
2 67373  97.7977  32.8776 0005036 212.7590 147.3315 14.87563341  3051
TWILIGHT M              
1 67374U 26004M   26032.05819670  .00002432  00000+0  27144-3 0  9999
2 67374  97.7961  32.8797 0003772 200.9297 159.1765 14.87917758  3051
TWILIGHT N              
1 67375U 26004N   26032.25957378  .00002176  00000+0  24327-3 0  9995
2 67375  97.7999  33.0863 0004362 195.2558 164.8527 14.87943772  3089
